NAYIF-1 (EO-88)         
1 42017U 17008BX  20119.46571344  .00001712  00000-0  68622-4 0  9996
2 42017  97.3631 187.7516 0007591 129.7283 230.4626 15.26366263177923
MAX VALIER SAT          
1 42778U 17036P   20119.13206335  .00000908  00000-0  42043-4 0  9995
2 42778  97.3099 174.1476 0011893 191.0616 169.0361 15.22533403158078
RADFXSAT (FOX-1B)       
1 43017U 17073E   20119.18630585  .00000326  00000-0  31167-4 0  9995
2 43017  97.7247  33.3601 0256232 213.8812 144.5804 14.78892277131730
FOX-1D (AO-92)          
1 43137U 18004AC  20119.45470273  .00001087  00000-0  47798-4 0  9991
2 43137  97.4484 190.9485 0007981 223.6401 136.4206 15.24032792127428
DIWATA-2B               
1 43678U 18084H   20119.36390726  .00000403  00000-0  45801-4 0  9997
2 43678  97.8759 237.7905 0009729 351.3540   8.7529 14.91625583 81550
ES'HAIL 2               
1 43700U 18090A   20118.88111314  .00000147  00000-0  00000-0 0  9993
2 43700   0.0179 245.9727 0001102 144.6046 168.6842  1.00268383  5201
FOX-1CLIFF (AO-95)      
1 43770U 18099N   20119.17551346 -.00000059  00000-0 -13074-6 0  9990
2 43770  97.7083 191.4251 0014747  11.1636 348.9909 14.94959646 76407
ITASAT 1                
1 43786U 18099AE  20118.98314609 -.00000139  00000-0 -73341-5 0  9995
2 43786  97.7098 191.6194 0015224   5.0961 355.0412 14.95302049 76398
JY1SAT (JO-97)          
1 43803U 18099AX  20118.93663400  .00000523  00000-0  52360-4 0  9998
2 43803  97.7057 191.4046 0015050   6.0035 354.1364 14.95471153 76385
PSAT2 (NO-104)          
1 44354U 19036R   20118.93075762  .00014756  00000-0  21775-3 0  9998
2 44354  28.5306 352.2477 0367335 131.6491 231.6160 15.02767655 46203
BRICSAT2 (NO-103)       
1 44355U 19036S   20118.91051443  .00027469  00000-0  39134-3 0  9990
2 44355  28.5307 346.2362 0348509 141.4047 221.2002 15.07495662 46266
JAISAT-1                
1 44419U 19038F   20119.15141040  .00000872  00000-0  53342-4 0  9990
2 44419  97.5342  81.3542 0020320 307.1414  52.7960 15.12708786 44994
DUCHIFAT-3              
1 44854U 19089C   20119.47129145  .00000449  00000-0  42728-4 0  9992
2 44854  36.9675  33.7277 0008177   8.1980 351.8899 14.99035284 20797
ORBITAL FACTORY 2 (OF-2)
1 45113U 19071C   20119.23200457  .00002941  00000-0  10176-3 0  9992
2 45113  51.6429 246.1214 0012718 235.0806 124.8981 15.33176651 13427
HUSKYSAT-1              
1 45119U 19071J   20119.08745685  .00002551  00000-0  89188-4 0  9995
2 45119  51.6428 246.6570 0012008 230.7489 129.2428 15.33411460 13394
